ORBCOMM FM115           
1 41186U 15081H   24237.09826614  .00002349  00000+0  50829-3 0  9993
2 41186  46.9998  11.2014 0000938 217.6433 142.4388 14.61083698464305
ORBCOMM FM108           
1 41187U 15081J   24237.03395484  .00002085  00000+0  49701-3 0  9998
2 41187  47.0041  69.1664 0001753  15.1391 344.9546 14.56941228463524
ORBCOMM FM117           
1 41188U 15081K   24237.00001124  .00002069  00000+0  49345-3 0  9997
2 41188  47.0004  68.1863 0002340  33.2597 326.8435 14.56926683463531
ORBCOMM FM116           
1 41189U 15081L   24237.12613442  .00002662  00000+0  62568-3 0  9994
2 41189  47.0007 157.4171 0001704 130.7139 229.3894 14.56825545462380
